[{"OBJECT_NAME":"STARLINK-35702","OBJECT_ID":"2025-281AE","EPOCH":"2026-03-09T03:37:59.556864","MEAN_MOTION":15.27563368,"ECCENTRICITY":0.00022051,"INCLINATION":43.0048,"RA_OF_ASC_NODE":346.472,"ARG_OF_PERICENTER":251.6929,"MEAN_ANOMALY":108.3683,"EPHEMERIS_TYPE":0,"CLASSIFICATION_TYPE":"U","NORAD_CAT_ID":66876,"ELEMENT_SET_NO":999,"REV_AT_EPOCH":1609,"BSTAR":0.0013465766,"MEAN_MOTION_DOT":0.00036961,"MEAN_MOTION_DDOT":0},{"OBJECT_NAME":"CZ-2C R\/B","OBJECT_ID":"2024-218A","EPOCH":"2026-03-09T22:16:31.791072","MEAN_MOTION":15.22960743,"ECCENTRICITY":0.00453409,"INCLINATION":97.5416,"RA_OF_ASC_NODE":83.973,"ARG_OF_PERICENTER":359.5317,"MEAN_ANOMALY":0.5869,"EPHEMERIS_TYPE":0,"CLASSIFICATION_TYPE":"U","NORAD_CAT_ID":62078,"ELEMENT_SET_NO":999,"REV_AT_EPOCH":7134,"BSTAR":0.00039378379,"MEAN_MOTION_DOT":9.445e-5,"MEAN_MOTION_DDOT":0}]
